SITRO-AIS 26            
1 59067U 24039S   24070.49920615  .00008651  00000+0  85420-3 0  9995
2 59067  95.3936  30.6436 0173984 322.7535  36.1718 14.81368910  1496
SITRO-AIS 27            
1 59068U 24039T   24070.49853914  .00008624  00000+0  84972-3 0  9994
2 59068  95.3938  30.6449 0173821 322.6555  36.2681 14.81467161  1492
SITRO-AIS 28            
1 59071U 24039U   24070.49828107  .00008570  00000+0  84396-3 0  9994
2 59071  95.3939  30.6455 0173675 322.6574  36.2673 14.81504795  1498
